{"type": "FeatureCollection", "features": [ {"type": "Feature", "properties": {"norad_id": 35706, "name": "COSMOS 2251 DEB", "group": "cosmos-2251-debris", "lat": 26.703492891523034, "lon": -146.0741353726358, "alt_km": 889.1963527375538, "timestamp": "2025-12-25T03:55:56.763862+00:00", "meta": {"OBJECT_NAME": "COSMOS 2251 DEB", "OBJECT_ID": "1993-036AQB", "EPOCH": "2025-12-21T09:35:04.200288", "MEAN_MOTION": 13.65940195, "ECCENTRICITY": 0.03399329, "INCLINATION": 73.889, "RA_OF_ASC_NODE": 48.5024, "ARG_OF_PERICENTER": 96.6435, "MEAN_ANOMALY": 267.3485, "EPHEMERIS_TYPE": 0, "CLASSIFICATION_TYPE": "U", "NORAD_CAT_ID": 35706, "ELEMENT_SET_NO": 999, "REV_AT_EPOCH": 62180, "BSTAR": 0.00062720687, "MEAN_MOTION_DOT": 7.46e-06, "MEAN_MOTION_DDOT": 0}, "tle": {"line1": "1 35706U 93036AQB 25355.39935417  .00000746  00000+0  62721-3 0  9990", "line2": "2 35706  73.8890  48.5024 0339932  96.6435 267.3485 13.65940195621808"}}, "geometry": {"type": "Point", "coordinates": [-146.0741353726358, 26.703492891523034]}}, {"type": "Feature", "properties": {"norad_id": 35711, "name": "COSMOS 2251 DEB", "group": "cosmos-2251-debris", "lat": -73.05822209245667, "lon": 126.71243963288624, "alt_km": 630.6967346738138, "timestamp": "2025-12-25T03:55:56.763873+00:00", "meta": {"OBJECT_NAME": "COSMOS 2251 DEB", "OBJECT_ID": "1993-036AQG", "EPOCH": "2025-12-24T20:06:36.909216", "MEAN_MOTION": 14.63830182, "ECCENTRICITY": 0.0085529, "INCLINATION": 74.0452, "RA_OF_ASC_NODE": 197.2457, "ARG_OF_PERICENTER": 295.6426, "MEAN_ANOMALY": 63.5923, "EPHEMERIS_TYPE": 0, "CLASSIFICATION_TYPE": "U", "NORAD_CAT_ID": 35711, "ELEMENT_SET_NO": 999, "REV_AT_EPOCH": 87948, "BSTAR": 0.00021414, "MEAN_MOTION_DOT": 1.145e-05, "MEAN_MOTION_DDOT": 0}, "tle": {"line1": "1 35711U 93036AQG 25358.83792719  .00001145  00000+0  21414-3 0  9992", "line2": "2 35711  74.0452 197.2457 0085529 295.6426  63.5923 14.63830182879489"}}, "geometry": {"type": "Point", "coordinates": [126.71243963288624, -73.05822209245667]}}, {"type": "Feature", "properties": {"norad_id": 35716, "name": "COSMOS 2251 DEB", "group": "cosmos-2251-debris", "lat": -9.048780851611534, "lon": -6.949916839796115, "alt_km": 759.6917899375394, "timestamp": "2025-12-25T03:55:56.763883+00:00", "meta": {"OBJECT_NAME": "COSMOS 2251 DEB", "OBJECT_ID": "1993-036AQM", "EPOCH": "2025-12-23T05:49:55.043616", "MEAN_MOTION": 14.60096888, "ECCENTRICITY": 0.00892359, "INCLINATION": 73.9921, "RA_OF_ASC_NODE": 174.1043, "ARG_OF_PERICENTER": 12.4356, "MEAN_ANOMALY": 164.342, "EPHEMERIS_TYPE": 0, "CLASSIFICATION_TYPE": "U", "NORAD_CAT_ID": 35716, "ELEMENT_SET_NO": 999, "REV_AT_EPOCH": 87780, "BSTAR": 8.3064383e-05, "MEAN_MOTION_DOT": 3.89e-06, "MEAN_MOTION_DDOT": 0}, "tle": {"line1": "1 35716U 93036AQM 25357.24299819  .00000389  00000+0  83064-4 0  9993", "line2": "2 35716  73.9921 174.1043 0089235  12.4356 164.3420 14.60096888877803"}}, "geometry": {"type": "Point", "coordinates": [-6.949916839796115, -9.048780851611534]}}, {"type": "Feature", "properties": {"norad_id": 35717, "name": "COSMOS 2251 DEB", "group": "cosmos-2251-debris", "lat": 68.37183466503693, "lon": -119.49877785855509, "alt_km": 705.7991580632724, "timestamp": "2025-12-25T03:55:56.763894+00:00", "meta": {"OBJECT_NAME": "COSMOS 2251 DEB", "OBJECT_ID": "1993-036AQN", "EPOCH": "2025-12-22T07:09:37.342368", "MEAN_MOTION": 14.38552439, "ECCENTRICITY": 0.00775013, "INCLINATION": 74.1587, "RA_OF_ASC_NODE": 200.0085, "ARG_OF_PERICENTER": 56.63, "MEAN_ANOMALY": 304.224, "EPHEMERIS_TYPE": 0, "CLASSIFICATION_TYPE": "U", "NORAD_CAT_ID": 35717, "ELEMENT_SET_NO": 999, "REV_AT_EPOCH": 74237, "BSTAR": 0.0010958575, "MEAN_MOTION_DOT": 3.447e-05, "MEAN_MOTION_DDOT": 0}, "tle": {"line1": "1 35717U 93036AQN 25356.29834887  .00003447  00000+0  10959-2 0  9997", "line2": "2 35717  74.1587 200.0085 0077501  56.6300 304.2240 14.38552439742374"}}, "geometry": {"type": "Point", "coordinates": [-119.49877785855509, 68.37183466503693]}}, {"type": "Feature", "properties": {"norad_id": 35718, "name": "COSMOS 2251 DEB", "group": "cosmos-2251-debris", "lat": 74.00401986243538, "lon": -166.87124166311216, "alt_km": 654.2137943620992, "timestamp": "2025-12-25T03:55:56.763904+00:00", "meta": {"OBJECT_NAME": "COSMOS 2251 DEB", "OBJECT_ID": "1993-036AQP", "EPOCH": "2025-12-23T13:55:54.385248", "MEAN_MOTION": 14.68842893, "ECCENTRICITY": 0.00097435, "INCLINATION": 74.0322, "RA_OF_ASC_NODE": 108.9893, "ARG_OF_PERICENTER": 156.5682, "MEAN_ANOMALY": 203.5934, "EPHEMERIS_TYPE": 0, "CLASSIFICATION_TYPE": "U", "NORAD_CAT_ID": 35718, "ELEMENT_SET_NO": 999, "REV_AT_EPOCH": 65999, "BSTAR": 0.001680712, "MEAN_MOTION_DOT": 9.809e-05, "MEAN_MOTION_DDOT": 0}, "tle": {"line1": "1 35718U 93036AQP 25357.58049057  .00009809  00000+0  16807-2 0  9994", "line2": "2 35718  74.0322 108.9893 0009743 156.5682 203.5934 14.68842893659995"}}, "geometry": {"type": "Point", "coordinates": [-166.87124166311216, 74.00401986243538]}}, {"type": "Feature", "properties": {"norad_id": 35721, "name": "COSMOS 2251 DEB", "group": "cosmos-2251-debris", "lat": 16.916755327567042, "lon": 159.89240485559898, "alt_km": 755.7860660887363, "timestamp": "2025-12-25T03:55:56.763915+00:00", "meta": {"OBJECT_NAME": "COSMOS 2251 DEB", "OBJECT_ID": "1993-036AQS", "EPOCH": "2025-12-09T19:36:39.465216", "MEAN_MOTION": 14.34317214, "ECCENTRICITY": 0.01465875, "INCLINATION": 73.9489, "RA_OF_ASC_NODE": 183.1196, "ARG_OF_PERICENTER": 330.1589, "MEAN_ANOMALY": 29.126, "EPHEMERIS_TYPE": 0, "CLASSIFICATION_TYPE": "U", "NORAD_CAT_ID": 35721, "ELEMENT_SET_NO": 999, "REV_AT_EPOCH": 57747, "BSTAR": 0.0018396061, "MEAN_MOTION_DOT": 5.808e-05, "MEAN_MOTION_DDOT": 0}, "tle": {"line1": "1 35721U 93036AQS 25343.81712344  .00005808  00000+0  18396-2 0  9995", "line2": "2 35721  73.9489 183.1196 0146587 330.1589  29.1260 14.34317214577479"}}, "geometry": {"type": "Point", "coordinates": [159.89240485559898, 16.916755327567042]}}, {"type": "Feature", "properties": {"norad_id": 35724, "name": "COSMOS 2251 DEB", "group": "cosmos-2251-debris", "lat": -56.031708450150965, "lon": -106.11273596501772, "alt_km": 731.5515069395151, "timestamp": "2025-12-25T03:55:56.763925+00:00", "meta": {"OBJECT_NAME": "COSMOS 2251 DEB", "OBJECT_ID": "1993-036AQV", "EPOCH": "2025-12-22T02:06:46.007136", "MEAN_MOTION": 14.58219865, "ECCENTRICITY": 0.0058953, "INCLINATION": 74.033, "RA_OF_ASC_NODE": 284.8882, "ARG_OF_PERICENTER": 75.7693, "MEAN_ANOMALY": 285.001, "EPHEMERIS_TYPE": 0, "CLASSIFICATION_TYPE": "U", "NORAD_CAT_ID": 35724, "ELEMENT_SET_NO": 999, "REV_AT_EPOCH": 87665, "BSTAR": 0.00023860841, "MEAN_MOTION_DOT": 1.098e-05, "MEAN_MOTION_DDOT": 0}, "tle": {"line1": "1 35724U 93036AQV 25356.08803249  .00001098  00000+0  23861-3 0  9997", "line2": "2 35724  74.0330 284.8882 0058953  75.7693 285.0010 14.58219865876654"}}, "geometry": {"type": "Point", "coordinates": [-106.11273596501772, -56.031708450150965]}}, {"type": "Feature", "properties": {"norad_id": 35759, "name": "COSMOS 2251 DEB", "group": "cosmos-2251-debris", "lat": 72.09800129157438, "lon": -50.24208653169172, "alt_km": 717.52887545052, "timestamp": "2025-12-25T03:55:56.763935+00:00", "meta": {"OBJECT_NAME": "COSMOS 2251 DEB", "OBJECT_ID": "1993-036ARD", "EPOCH": "2025-12-23T21:58:59.337120", "MEAN_MOTION": 14.64922516, "ECCENTRICITY": 0.0077376, "INCLINATION": 74.0358, "RA_OF_ASC_NODE": 194.553, "ARG_OF_PERICENTER": 310.1974, "MEAN_ANOMALY": 49.2438, "EPHEMERIS_TYPE": 0, "CLASSIFICATION_TYPE": "U", "NORAD_CAT_ID": 35759, "ELEMENT_SET_NO": 999, "REV_AT_EPOCH": 66299, "BSTAR": 0.00022748, "MEAN_MOTION_DOT": 1.237e-05, "MEAN_MOTION_DDOT": 0}, "tle": {"line1": "1 35759U 93036ARD 25357.91596455  .00001237  00000+0  22748-3 0  9994", "line2": "2 35759  74.0358 194.5530 0077376 310.1974  49.2438 14.64922516662992"}}, "geometry": {"type": "Point", "coordinates": [-50.24208653169172, 72.09800129157438]}}, {"type": "Feature", "properties": {"norad_id": 35771, "name": "COSMOS 2251 DEB", "group": "cosmos-2251-debris", "lat": -26.848986087456893, "lon": -79.77782691223045, "alt_km": 901.1895958678788, "timestamp": "2025-12-25T03:55:56.763946+00:00", "meta": {"OBJECT_NAME": "COSMOS 2251 DEB", "OBJECT_ID": "1993-036ARR", "EPOCH": "2025-12-15T14:45:16.238592", "MEAN_MOTION": 14.13430046, "ECCENTRICITY": 0.02280549, "INCLINATION": 74.1561, "RA_OF_ASC_NODE": 305.27, "ARG_OF_PERICENTER": 242.9998, "MEAN_ANOMALY": 114.7698, "EPHEMERIS_TYPE": 0, "CLASSIFICATION_TYPE": "U", "NORAD_CAT_ID": 35771, "ELEMENT_SET_NO": 999, "REV_AT_EPOCH": 82901, "BSTAR": 0.0026764238, "MEAN_MOTION_DOT": 6.427e-05, "MEAN_MOTION_DDOT": 0}, "tle": {"line1": "1 35771U 93036ARR 25349.61477128  .00006427  00000+0  26764-2 0  9998", "line2": "2 35771  74.1561 305.2700 0228054 242.9998 114.7698 14.13430046829012"}}, "geometry": {"type": "Point", "coordinates": [-79.77782691223045, -26.848986087456893]}}, {"type": "Feature", "properties": {"norad_id": 35773, "name": "COSMOS 2251 DEB", "group": "cosmos-2251-debris", "lat": -35.476443777348535, "lon": 148.78383359316163, "alt_km": 699.6055173441418, "timestamp": "2025-12-25T03:55:56.763956+00:00", "meta": {"OBJECT_NAME": "COSMOS 2251 DEB", "OBJECT_ID": "1993-036ART", "EPOCH": "2025-12-23T21:23:21.545376", "MEAN_MOTION": 14.62127743, "ECCENTRICITY": 0.004519, "INCLINATION": 74.0086, "RA_OF_ASC_NODE": 319.4307, "ARG_OF_PERICENTER": 116.1702, "MEAN_ANOMALY": 244.4123, "EPHEMERIS_TYPE": 0, "CLASSIFICATION_TYPE": "U", "NORAD_CAT_ID": 35773, "ELEMENT_SET_NO": 999, "REV_AT_EPOCH": 87002, "BSTAR": 0.00061789, "MEAN_MOTION_DOT": 3.123e-05, "MEAN_MOTION_DDOT": 0}, "tle": {"line1": "1 35773U 93036ART 25357.89122159  .00003123  00000+0  61789-3 0  9997", "line2": "2 35773  74.0086 319.4307 0045190 116.1702 244.4123 14.62127743870020"}}, "geometry": {"type": "Point", "coordinates": [148.78383359316163, -35.476443777348535]}}]}